SAUDISAT 5A             
1 43831U 18102A   26169.86743359  .00004431  00000+0  16433-3 0  9991
2 43831  97.3064 231.4162 0011116 123.9485 236.2813 15.28062478415931
SAUDISAT 5B             
1 43833U 18102C   26169.88599602  .00004186  00000+0  15418-3 0  9994
2 43833  97.3173 234.5072 0011773 126.0443 234.1889 15.28318311416059
GAOFEN-10R              
1 44622U 19066A   26169.84052921  .00000901  00000+0  11737-3 0  9996
2 44622  98.0502 123.4319 0006760 123.0640 237.1223 14.83063890362623
CARTOSAT-3              
1 44804U 19081A   26169.86976059  .00001158  00000+0  57994-4 0  9995
2 44804  97.4297 231.7103 0013341 142.7440 217.4723 15.19286725363724
GAOFEN-12 01            
1 44819U 19082A   26169.83700184  .00000294  00000+0  45047-4 0  9999
2 44819  97.8100 176.1729 0002230  68.5311 291.6139 14.80459708354332
CSG-1                   
1 44873U 19092A   26169.80662344  .00000296  00000+0  43682-4 0  9997
2 44873  97.8888 353.3856 0001473  89.1402 270.9980 14.82154358351711
NEMO-HD                 
1 46277U 20061F   26169.81414330  .00008608  00000+0  18680-3 0  9990
2 46277  97.1915 231.7507 0002191  79.7731 280.3765 15.44621361322238
SENTINEL-6A             
1 46984U 20086A   26169.64700221 -.00000063  00000+0 -90625-5 0  9990
2 46984  66.0396 132.0202 0007927 270.2203  89.7903 12.80929949260517
CAS500-1                
1 47932U 21022A   26169.84032751  .00004935  00000+0  23124-3 0  9991
2 47932  97.3896  65.0603 0003331 292.1521  67.9360 15.20148144291015
GAOFEN-12 02            
1 48079U 21026A   26169.91583211  .00000256  00000+0  40583-4 0  9999
2 48079  97.9922 168.0893 0003803 214.7448 145.3516 14.80297236282017
PLEIADES NEO 3          
1 48268U 21034A   26169.87392568  .00000216  00000+0  33999-4 0  9995
2 48268  97.8931 244.6164 0001352  87.1558 272.9809 14.81674452277903
PLEIADES NEO 4          
1 49070U 21073E   26169.84014279  .00001213  00000+0  16070-3 0  9995
2 49070  97.8934 244.5793 0001379  87.6856 272.4514 14.81680528261610
LANDSAT 9               
1 49260U 21088A   26169.77593625  .00000257  00000+0  67089-4 0  9995
2 49260  98.2281 239.9341 0001316  86.0997 274.0351 14.57098055251233
CSG-2                   
1 51444U 22008A   26169.84035709 -.00000053  00000+0 -88961-7 0  9998
2 51444  97.8882 353.4136 0001463  85.3060 274.8320 14.82156307236838
GAOFEN-12 03            
1 52912U 22069A   26169.87844833  .00000440  00000+0  64774-4 0  9996
2 52912  97.8277  57.7063 0002126 101.1190 259.0261 14.80036654214866
SWOT                    
1 54754U 22173A   26169.84606515  .00000024  00000+0  18294-4 0  9992
2 54754  77.6106  33.0708 0000263  91.6074 268.5107 14.00169786179382
GAOFEN-12 04            
1 57654U 23123A   26169.89490248  .00000760  00000+0  10669-3 0  9993
2 57654  97.9121  87.8883 0001771  82.4693 277.6720 14.80231508152885
PARS 1                  
1 59065U 24039Q   26169.86818983  .00008949  00000+0  18649-3 0  9998
2 59065  97.4826 150.8409 0011530 106.6452 253.6064 15.45753110128902
RESURS-P 4              
1 59371U 24061A   26169.83061920  .00002467  00000+0  81953-4 0  9999
2 59371  97.2754 117.7008 0002296 124.9942 235.1515 15.32139045124018
LEGION 1                
1 59625U 24081A   26169.87639782  .00002724  00000+0  14244-3 0  9998
2 59625  97.5016 247.7154 0009353  12.0606 348.0849 15.16676232117792
LEGION 2                
1 59626U 24081B   26169.84042405  .00002752  00000+0  14395-3 0  9994
2 59626  97.5017 247.7773 0010604 337.6933  22.3837 15.16654274117792
ALOS-4 (DAICHI-4)       
1 60182U 24123A   26169.84934287  .00001095  00000+0  15350-3 0  9999
2 60182  97.9247 266.9999 0001628  97.0709 263.0688 14.79470686106121
LEGION 3                
1 60452U 24146A   26169.84414829  .00003118  00000+0  17281-3 0  9992
2 60452  45.0026  21.6685 0007843 179.7758 180.3125 15.16047355102279
LEGION 4                
1 60453U 24146B   26169.84725223  .00003718  00000+0  20325-3 0  9995
2 60453  45.0013 113.5619 0013622 317.1790  42.8027 15.16042728101125
SENTINEL-2C             
1 60989U 24157A   26169.78093678  .00000081  00000+0  47533-4 0  9997
2 60989  98.5692 244.5404 0001001  82.7227 277.4070 14.30818212 93218
IONOSFERA-M 1           
1 61735U 24199A   26169.88161403  .00000027  00000+0  31842-4 0  9992
2 61735  98.7171  43.0360 0001982 107.9107 252.2287 14.22754582127949
IONOSFERA-M 2           
1 61736U 24199B   26169.84557928  .00000040  00000+0  37566-4 0  9994
2 61736  98.7170  42.9109 0000978  38.2361 321.8887 14.22757880131061
PRSC-EO1                
1 62725U 25012A   26169.84004722  .00004937  00000+0  24871-3 0  9990
2 62725  97.4222 242.2679 0004872 244.9802 115.0926 15.17625367 78442
BIOMASS                 
1 63772U 25090A   26169.46532683  .00000158  00000+0  36300-4 0  9991
2 63772  98.0739 356.7637 0001346  96.2561 263.8797 14.67536694 60877
GOSAT-GW (IBUKI GW)     
1 64694U 25141A   26169.82650524  .00000029  00000+0  13506-4 0  9997
2 64694  98.0573 107.1171 0001443  83.7816 276.3553 14.67554079 52080
IONOSFERA-M 3           
1 64876U 25155A   26169.86476147  .00000035  00000+0  35674-4 0  9992
2 64876  98.6032 131.7275 0001107 153.7671 206.3563 14.21486689 46640
