OBJECT_NAME,OBJECT_ID,EPOCH,MEAN_MOTION,ECCENTRICITY,INCLINATION,RA_OF_ASC_NODE,ARG_OF_PERICENTER,MEAN_ANOMALY,EPHEMERIS_TYPE,CLASSIFICATION_TYPE,NORAD_CAT_ID,ELEMENT_SET_NO,REV_AT_EPOCH,BSTAR,MEAN_MOTION_DOT,MEAN_MOTION_DDOT
SAUDISAT 5A,2018-102A,2026-06-18T20:49:06.262176,15.28062478,.0011116,97.3064,231.4162,123.9485,236.2813,0,U,43831,999,41593,.16433E-3,.4431E-4,0
SAUDISAT 5B,2018-102C,2026-06-18T21:15:50.056128,15.28318311,.0011773,97.3173,234.5072,126.0443,234.1889,0,U,43833,999,41605,.15418E-3,.4186E-4,0
GAOFEN-10R,2019-066A,2026-06-18T20:10:21.723744,14.83063890,.000676,98.0502,123.4319,123.0640,237.1223,0,U,44622,999,36262,.11737E-3,.901E-5,0
CARTOSAT-3,2019-081A,2026-06-18T20:52:27.314976,15.19286725,.0013341,97.4297,231.7103,142.7440,217.4723,0,U,44804,999,36372,.57994E-4,.1158E-4,0
GAOFEN-12 01,2019-082A,2026-06-18T20:05:16.958976,14.80459708,.000223,97.8100,176.1729,68.5311,291.6139,0,U,44819,999,35433,.45047E-4,.294E-5,0
CSG-1,2019-092A,2026-06-18T19:21:32.265216,14.82154358,.0001473,97.8888,353.3856,89.1402,270.9980,0,U,44873,999,35171,.43682E-4,.296E-5,0
NEMO-HD,2020-061F,2026-06-18T19:32:21.981120,15.44621361,.0002191,97.1915,231.7507,79.7731,280.3765,0,U,46277,999,32223,.1868E-3,.8608E-4,0
SENTINEL-6A,2020-086A,2026-06-18T15:31:40.990944,12.80929949,.0007927,66.0396,132.0202,270.2203,89.7903,0,U,46984,999,26051,-.90625E-5,-.63E-6,0
CAS500-1,2021-022A,2026-06-18T20:10:04.296864,15.20148144,.0003331,97.3896,65.0603,292.1521,67.9360,0,U,47932,999,29101,.23124E-3,.4935E-4,0
GAOFEN-12 02,2021-026A,2026-06-18T21:58:47.894304,14.80297236,.0003803,97.9922,168.0893,214.7448,145.3516,0,U,48079,999,28201,.40583E-4,.256E-5,0
PLEIADES NEO 3,2021-034A,2026-06-18T20:58:27.178752,14.81674452,.0001352,97.8931,244.6164,87.1558,272.9809,0,U,48268,999,27790,.33999E-4,.216E-5,0
PLEIADES NEO 4,2021-073E,2026-06-18T20:09:48.337056,14.81680528,.0001379,97.8934,244.5793,87.6856,272.4514,0,U,49070,999,26161,.1607E-3,.1213E-4,0
LANDSAT 9,2021-088A,2026-06-18T18:37:20.892000,14.57098055,.0001316,98.2281,239.9341,86.0997,274.0351,0,U,49260,999,25123,.67089E-4,.257E-5,0
CSG-2,2022-008A,2026-06-18T20:10:06.852576,14.82156307,.0001463,97.8882,353.4136,85.3060,274.8320,0,U,51444,999,23683,-.88961E-7,-.53E-6,0
GAOFEN-12 03,2022-069A,2026-06-18T21:04:57.935712,14.80036654,.0002126,97.8277,57.7063,101.1190,259.0261,0,U,52912,999,21486,.64774E-4,.44E-5,0
SWOT,2022-173A,2026-06-18T20:18:20.028960,14.00169786,.0000263,77.6106,33.0708,91.6074,268.5107,0,U,54754,999,17938,.18294E-4,.24E-6,0
GAOFEN-12 04,2023-123A,2026-06-18T21:28:39.574272,14.80231508,.0001771,97.9121,87.8883,82.4693,277.6720,0,U,57654,999,15288,.10669E-3,.76E-5,0
PARS 1,2024-039Q,2026-06-18T20:50:11.601312,15.45753110,.001153,97.4826,150.8409,106.6452,253.6064,0,U,59065,999,12890,.18649E-3,.8949E-4,0
RESURS-P 4,2024-061A,2026-06-18T19:56:05.498880,15.32139045,.0002296,97.2754,117.7008,124.9942,235.1515,0,U,59371,999,12401,.81953E-4,.2467E-4,0
LEGION 1,2024-081A,2026-06-18T21:02:00.771648,15.16676232,.0009353,97.5016,247.7154,12.0606,348.0849,0,U,59625,999,11779,.14244E-3,.2724E-4,0
LEGION 2,2024-081B,2026-06-18T20:10:12.637920,15.16654274,.0010604,97.5017,247.7773,337.6933,22.3837,0,U,59626,999,11779,.14395E-3,.2752E-4,0
ALOS-4 (DAICHI-4),2024-123A,2026-06-18T20:23:03.223968,14.79470686,.0001628,97.9247,266.9999,97.0709,263.0688,0,U,60182,999,10612,.1535E-3,.1095E-4,0
LEGION 3,2024-146A,2026-06-18T20:15:34.412256,15.16047355,.0007843,45.0026,21.6685,179.7758,180.3125,0,U,60452,999,10227,.17281E-3,.3118E-4,0
LEGION 4,2024-146B,2026-06-18T20:20:02.592672,15.16042728,.0013622,45.0013,113.5619,317.1790,42.8027,0,U,60453,999,10112,.20325E-3,.3718E-4,0
SENTINEL-2C,2024-157A,2026-06-18T18:44:32.937792,14.30818212,.0001001,98.5692,244.5404,82.7227,277.4070,0,U,60989,999,9321,.47533E-4,.81E-6,0
IONOSFERA-M 1,2024-199A,2026-06-18T21:09:31.452192,14.22754582,.0001982,98.7171,43.0360,107.9107,252.2287,0,U,61735,999,12794,.31842E-4,.27E-6,0
IONOSFERA-M 2,2024-199B,2026-06-18T20:17:38.049792,14.22757880,.0000978,98.7170,42.9109,38.2361,321.8887,0,U,61736,999,13106,.37566E-4,.4E-6,0
PRSC-EO1,2025-012A,2026-06-18T20:09:40.079808,15.17625367,.0004872,97.4222,242.2679,244.9802,115.0926,0,U,62725,999,7844,.24871E-3,.4937E-4,0
BIOMASS,2025-090A,2026-06-18T11:10:04.238112,14.67536694,.0001346,98.0739,356.7637,96.2561,263.8797,0,U,63772,999,6087,.363E-4,.158E-5,0
GOSAT-GW (IBUKI GW),2025-141A,2026-06-18T19:50:10.052736,14.67554079,.0001443,98.0573,107.1171,83.7816,276.3553,0,U,64694,999,5208,.13506E-4,.29E-6,0
IONOSFERA-M 3,2025-155A,2026-06-18T20:45:15.391008,14.21486689,.0001107,98.6032,131.7275,153.7671,206.3563,0,U,64876,999,4664,.35674E-4,.35E-6,0
